[{"OBJECT_NAME":"FENGYUN 1C DEB","OBJECT_ID":"1999-025BNS","EPOCH":"2026-03-01T12:29:01.312512","MEAN_MOTION":13.98090695,"ECCENTRICITY":0.01436875,"INCLINATION":99.7171,"RA_OF_ASC_NODE":164.5335,"ARG_OF_PERICENTER":206.0479,"MEAN_ANOMALY":153.3402,"EPHEMERIS_TYPE":0,"CLASSIFICATION_TYPE":"U","NORAD_CAT_ID":31284,"ELEMENT_SET_NO":999,"REV_AT_EPOCH":96263,"BSTAR":0.0008221704,"MEAN_MOTION_DOT":1.227e-5,"MEAN_MOTION_DDOT":0},{"OBJECT_NAME":"FENGYUN 1C DEB","OBJECT_ID":"1999-025BNT","EPOCH":"2026-03-05T09:43:53.895360","MEAN_MOTION":14.26198061,"ECCENTRICITY":0.0198561,"INCLINATION":98.5308,"RA_OF_ASC_NODE":47.6494,"ARG_OF_PERICENTER":305.3715,"MEAN_ANOMALY":212.1005,"EPHEMERIS_TYPE":0,"CLASSIFICATION_TYPE":"U","NORAD_CAT_ID":31285,"ELEMENT_SET_NO":999,"REV_AT_EPOCH":98477,"BSTAR":0.00042893,"MEAN_MOTION_DOT":1.216e-5,"MEAN_MOTION_DDOT":0},{"OBJECT_NAME":"FENGYUN 1C DEB","OBJECT_ID":"1999-025BNU","EPOCH":"2026-03-05T17:15:35.460288","MEAN_MOTION":14.2388747,"ECCENTRICITY":0.0080494,"INCLINATION":100.8592,"RA_OF_ASC_NODE":339.5533,"ARG_OF_PERICENTER":52.8692,"MEAN_ANOMALY":307.9798,"EPHEMERIS_TYPE":0,"CLASSIFICATION_TYPE":"U","NORAD_CAT_ID":31286,"ELEMENT_SET_NO":999,"REV_AT_EPOCH":65200,"BSTAR":0.0038858,"MEAN_MOTION_DOT":9.157e-5,"MEAN_MOTION_DDOT":0},{"OBJECT_NAME":"FENGYUN 1C DEB","OBJECT_ID":"1999-025BNV","EPOCH":"2026-03-04T15:32:44.267712","MEAN_MOTION":14.28718752,"ECCENTRICITY":0.00294072,"INCLINATION":99.3984,"RA_OF_ASC_NODE":130.8821,"ARG_OF_PERICENTER":184.8407,"MEAN_ANOMALY":175.2492,"EPHEMERIS_TYPE":0,"CLASSIFICATION_TYPE":"U","NORAD_CAT_ID":31287,"ELEMENT_SET_NO":999,"REV_AT_EPOCH":97855,"BSTAR":0.0018384798,"MEAN_MOTION_DOT":4.599e-5,"MEAN_MOTION_DDOT":0},{"OBJECT_NAME":"FENGYUN 1C DEB","OBJECT_ID":"1999-025BNW","EPOCH":"2026-03-05T10:20:49.925760","MEAN_MOTION":15.11748051,"ECCENTRICITY":0.0013395,"INCLINATION":98.7497,"RA_OF_ASC_NODE":238.0875,"ARG_OF_PERICENTER":352.2394,"MEAN_ANOMALY":73.0627,"EPHEMERIS_TYPE":0,"CLASSIFICATION_TYPE":"U","NORAD_CAT_ID":31288,"ELEMENT_SET_NO":999,"REV_AT_EPOCH":98799,"BSTAR":0.0081913,"MEAN_MOTION_DOT":0.0014256,"MEAN_MOTION_DDOT":0},{"OBJECT_NAME":"FENGYUN 1C DEB","OBJECT_ID":"1999-025BPB","EPOCH":"2026-02-25T18:48:44.936352","MEAN_MOTION":14.30849667,"ECCENTRICITY":0.0126925,"INCLINATION":98.4238,"RA_OF_ASC_NODE":67.2369,"ARG_OF_PERICENTER":23.6667,"MEAN_ANOMALY":337.0285,"EPHEMERIS_TYPE":0,"CLASSIFICATION_TYPE":"U","NORAD_CAT_ID":31293,"ELEMENT_SET_NO":999,"REV_AT_EPOCH":66317,"BSTAR":8.4211449e-5,"MEAN_MOTION_DOT":1.97e-6,"MEAN_MOTION_DDOT":0},{"OBJECT_NAME":"FENGYUN 1C DEB","OBJECT_ID":"1999-025BPC","EPOCH":"2026-03-03T23:04:13.214784","MEAN_MOTION":14.15477148,"ECCENTRICITY":0.0100815,"INCLINATION":98.5493,"RA_OF_ASC_NODE":60.2159,"ARG_OF_PERICENTER":106.9121,"MEAN_ANOMALY":254.3135,"EPHEMERIS_TYPE":0,"CLASSIFICATION_TYPE":"U","NORAD_CAT_ID":31294,"ELEMENT_SET_NO":999,"REV_AT_EPOCH":98002,"BSTAR":0.00049139,"MEAN_MOTION_DOT":9.67e-6,"MEAN_MOTION_DDOT":0},{"OBJECT_NAME":"FENGYUN 1C DEB","OBJECT_ID":"1999-025BPD","EPOCH":"2026-03-05T11:30:49.143744","MEAN_MOTION":13.96864775,"ECCENTRICITY":0.0077951,"INCLINATION":98.3222,"RA_OF_ASC_NODE":246.5813,"ARG_OF_PERICENTER":20.206,"MEAN_ANOMALY":340.2162,"EPHEMERIS_TYPE":0,"CLASSIFICATION_TYPE":"U","NORAD_CAT_ID":31295,"ELEMENT_SET_NO":999,"REV_AT_EPOCH":96658,"BSTAR":7.1589e-5,"MEAN_MOTION_DOT":6.4e-7,"MEAN_MOTION_DDOT":0},{"OBJECT_NAME":"FENGYUN 1C DEB","OBJECT_ID":"1999-025BPE","EPOCH":"2026-03-05T18:36:50.996736","MEAN_MOTION":14.78189983,"ECCENTRICITY":0.0021439,"INCLINATION":99.0659,"RA_OF_ASC_NODE":354.4841,"ARG_OF_PERICENTER":331.1336,"MEAN_ANOMALY":28.8683,"EPHEMERIS_TYPE":0,"CLASSIFICATION_TYPE":"U","NORAD_CAT_ID":31296,"ELEMENT_SET_NO":999,"REV_AT_EPOCH":98573,"BSTAR":0.0070016,"MEAN_MOTION_DOT":0.00051248,"MEAN_MOTION_DDOT":0},{"OBJECT_NAME":"FENGYUN 1C DEB","OBJECT_ID":"1999-025BPF","EPOCH":"2026-03-05T08:52:35.690592","MEAN_MOTION":14.57396089,"ECCENTRICITY":0.0137641,"INCLINATION":98.9437,"RA_OF_ASC_NODE":212.3098,"ARG_OF_PERICENTER":231.4673,"MEAN_ANOMALY":157.7499,"EPHEMERIS_TYPE":0,"CLASSIFICATION_TYPE":"U","NORAD_CAT_ID":31297,"ELEMENT_SET_NO":999,"REV_AT_EPOCH":504,"BSTAR":0.00071221,"MEAN_MOTION_DOT":3.617e-5,"MEAN_MOTION_DDOT":0},{"OBJECT_NAME":"FENGYUN 1C DEB","OBJECT_ID":"1999-025BPJ","EPOCH":"2026-03-05T04:58:41.381760","MEAN_MOTION":14.15592704,"ECCENTRICITY":0.00630311,"INCLINATION":99.5337,"RA_OF_ASC_NODE":154.2551,"ARG_OF_PERICENTER":188.2409,"MEAN_ANOMALY":201.1219,"EPHEMERIS_TYPE":0,"CLASSIFICATION_TYPE":"U","NORAD_CAT_ID":31300,"ELEMENT_SET_NO":999,"REV_AT_EPOCH":97341,"BSTAR":0.0015297886,"MEAN_MOTION_DOT":3.003e-5,"MEAN_MOTION_DDOT":0},{"OBJECT_NAME":"FENGYUN 1C DEB","OBJECT_ID":"1999-025BPL","EPOCH":"2026-03-04T02:21:51.425568","MEAN_MOTION":14.28129944,"ECCENTRICITY":0.00296071,"INCLINATION":99.4068,"RA_OF_ASC_NODE":116.3699,"ARG_OF_PERICENTER":179.9619,"MEAN_ANOMALY":210.064,"EPHEMERIS_TYPE":0,"CLASSIFICATION_TYPE":"U","NORAD_CAT_ID":31302,"ELEMENT_SET_NO":999,"REV_AT_EPOCH":97519,"BSTAR":0.001712467,"MEAN_MOTION_DOT":4.231e-5,"MEAN_MOTION_DDOT":0},{"OBJECT_NAME":"FENGYUN 1C DEB","OBJECT_ID":"1999-025BPM","EPOCH":"2026-03-04T18:13:58.807488","MEAN_MOTION":14.11065703,"ECCENTRICITY":0.00099983,"INCLINATION":98.7015,"RA_OF_ASC_NODE":82.4211,"ARG_OF_PERICENTER":284.9913,"MEAN_ANOMALY":75.0151,"EPHEMERIS_TYPE":0,"CLASSIFICATION_TYPE":"U","NORAD_CAT_ID":31303,"ELEMENT_SET_NO":999,"REV_AT_EPOCH":97475,"BSTAR":0.00016697029,"MEAN_MOTION_DOT":2.58e-6,"MEAN_MOTION_DDOT":0},{"OBJECT_NAME":"FENGYUN 1C DEB","OBJECT_ID":"1999-025BPP","EPOCH":"2026-03-05T11:22:48.655200","MEAN_MOTION":14.30575934,"ECCENTRICITY":0.0020347,"INCLINATION":98.8441,"RA_OF_ASC_NODE":152.2035,"ARG_OF_PERICENTER":195.8156,"MEAN_ANOMALY":179.4797,"EPHEMERIS_TYPE":0,"CLASSIFICATION_TYPE":"U","NORAD_CAT_ID":31311,"ELEMENT_SET_NO":999,"REV_AT_EPOCH":97404,"BSTAR":0.0020983,"MEAN_MOTION_DOT":5.445e-5,"MEAN_MOTION_DDOT":0},{"OBJECT_NAME":"FENGYUN 1C DEB","OBJECT_ID":"1999-025BPQ","EPOCH":"2026-03-04T22:50:01.448160","MEAN_MOTION":14.01058121,"ECCENTRICITY":0.00598109,"INCLINATION":98.875,"RA_OF_ASC_NODE":52.2241,"ARG_OF_PERICENTER":7.7973,"MEAN_ANOMALY":18.2212,"EPHEMERIS_TYPE":0,"CLASSIFICATION_TYPE":"U","NORAD_CAT_ID":31312,"ELEMENT_SET_NO":999,"REV_AT_EPOCH":96297,"BSTAR":0.0005050656,"MEAN_MOTION_DOT":7.26e-6,"MEAN_MOTION_DDOT":0},{"OBJECT_NAME":"FENGYUN 1C DEB","OBJECT_ID":"1999-025BPR","EPOCH":"2026-03-05T04:21:29.331072","MEAN_MOTION":14.22405874,"ECCENTRICITY":0.00442921,"INCLINATION":99.0127,"RA_OF_ASC_NODE":334.9106,"ARG_OF_PERICENTER":307.2432,"MEAN_ANOMALY":52.4708,"EPHEMERIS_TYPE":0,"CLASSIFICATION_TYPE":"U","NORAD_CAT_ID":31313,"ELEMENT_SET_NO":999,"REV_AT_EPOCH":98234,"BSTAR":0.00036569603,"MEAN_MOTION_DOT":7.76e-6,"MEAN_MOTION_DDOT":0}]
