FENGYUN 1C DEB          
1 31284U 99025BNS 26060.52015408  .00001227  00000+0  82217-3 0  9996
2 31284  99.7171 164.5335 0143687 206.0479 153.3402 13.98090695962632
FENGYUN 1C DEB          
1 31285U 99025BNT 26064.40548490  .00001216  00000+0  42893-3 0  9994
2 31285  98.5308  47.6494 0198561 305.3715 212.1005 14.26198061984776
FENGYUN 1C DEB          
1 31286U 99025BNU 26064.71916042  .00009157  00000+0  38858-2 0  9998
2 31286 100.8592 339.5533 0080494  52.8692 307.9798 14.23887470652005
FENGYUN 1C DEB          
1 31287U 99025BNV 26063.64773458  .00004599  00000+0  18385-2 0  9990
2 31287  99.3984 130.8821 0029407 184.8407 175.2492 14.28718752978551
FENGYUN 1C DEB          
1 31288U 99025BNW 26064.43113340  .00142560  00000+0  81913-2 0  9995
2 31288  98.7497 238.0875 0013395 352.2394  73.0627 15.11748051987990
FENGYUN 1C DEB          
1 31293U 99025BPB 26056.78385343  .00000197  00000+0  84211-4 0  9999
2 31293  98.4238  67.2369 0126925  23.6667 337.0285 14.30849667663171
FENGYUN 1C DEB          
1 31294U 99025BPC 26062.96126406  .00000967  00000+0  49139-3 0  9994
2 31294  98.5493  60.2159 0100815 106.9121 254.3135 14.15477148980021
FENGYUN 1C DEB          
1 31295U 99025BPD 26064.47973546  .00000064  00000+0  71589-4 0  9991
2 31295  98.3222 246.5813 0077951  20.2060 340.2162 13.96864775966584
FENGYUN 1C DEB          
1 31296U 99025BPE 26064.77559024  .00051248  00000+0  70016-2 0  9998
2 31296  99.0659 354.4841 0021439 331.1336  28.8683 14.78189983985734
FENGYUN 1C DEB          
1 31297U 99025BPF 26064.36985753  .00003617  00000+0  71221-3 0  9993
2 31297  98.9437 212.3098 0137641 231.4673 157.7499 14.57396089  5040
FENGYUN 1C DEB          
1 31300U 99025BPJ 26064.20742340  .00003003  00000+0  15298-2 0  9994
2 31300  99.5337 154.2551 0063031 188.2409 201.1219 14.15592704973411
FENGYUN 1C DEB          
1 31302U 99025BPL 26063.09851187  .00004231  00000+0  17125-2 0  9997
2 31302  99.4068 116.3699 0029607 179.9619 210.0640 14.28129944975196
FENGYUN 1C DEB          
1 31303U 99025BPM 26063.75970842  .00000258  00000+0  16697-3 0  9990
2 31303  98.7015  82.4211 0009998 284.9913  75.0151 14.11065703974750
FENGYUN 1C DEB          
1 31311U 99025BPP 26064.47417425  .00005445  00000+0  20983-2 0  9997
2 31311  98.8441 152.2035 0020347 195.8156 179.4797 14.30575934974043
FENGYUN 1C DEB          
1 31312U 99025BPQ 26063.95140565  .00000726  00000+0  50507-3 0  9991
2 31312  98.8750  52.2241 0059810   7.7973  18.2212 14.01058121962973
FENGYUN 1C DEB          
1 31313U 99025BPR 26064.18158948  .00000776  00000+0  36570-3 0  9991
2 31313  99.0127 334.9106 0044292 307.2432  52.4708 14.22405874982348
